*******************************************************************************
JPL/HORIZONS              893 Leopoldina (A918 KD)         2023-Sep-04 11:09:00
Rec #:     893 (+COV) Soln.date: 2023-Aug-24_23:30:08   # obs: 4755 (1918-2023)
 
IAU76/J2000 helio. ecliptic osc. elements (au, days, deg., period=Julian yrs):
 
  EPOCH=  2457194.5 ! 2015-Jun-21.00 (TDB)         Residual RMS= .24436
   EC= .149954524949592    QR= 2.593222764728422   TP= 2457426.8203404364
   OM= 145.0538469860253   W=  223.1479165954444   IN= 17.01989391116979
   A= 3.050687099504462    MA= 317.0270853331035   ADIST= 3.508151434280502
   PER= 5.3285             N= .184972674           ANGMOM= .02970583
   DAN= 3.34842            DDN= 2.68801            L= 6.9237271
   B= -11.5472189          MOID= 1.61415005        TP= 2016-Feb-08.3203404364
 
Asteroid physical parameters (km, seconds, rotational period in hours):
   GM= n.a.                RAD= 42.996             ROTPER= 14.115
   H= 9.67                 G= .150                 B-V= .670
                           ALBEDO= .039            STYP= XF

ASTEROID comments: 
1: soln ref.= JPL#67, OCC=0
2: source=ORB
*******************************************************************************


*******************************************************************************
Ephemeris / API_USER Mon Sep  4 11:09:00 2023 Pasadena, USA      / Horizons
*******************************************************************************
Target body name: 893 Leopoldina (A918 KD)        {source: JPL#67}
Center body name: Solar System Barycenter (0)     {source: DE441}
Center-site name: BODY CENTER
*******************************************************************************
Start time      : A.D. 2023-Aug-12 00:00:00.0000 TDB
Stop  time      : A.D. 2023-Aug-13 00:00:00.0000 TDB
Step-size       : 2880 minutes
*******************************************************************************
Center geodetic : 0.0, 0.0, 0.0                   {E-lon(deg),Lat(deg),Alt(km)}
Center cylindric: 0.0, 0.0, 0.0                   {E-lon(deg),Dxy(km),Dz(km)}
Center radii    : (undefined)
Small perturbers: Yes                             {source: SB441-N16}
Output units    : KM-S
Calendar mode   : Mixed Julian/Gregorian
Output type     : GEOMETRIC cartesian states
Output format   : 2 (position and velocity)
Reference frame : Ecliptic of J2000.0
*******************************************************************************
Initial IAU76/J2000 heliocentric ecliptic osculating elements (au, days, deg.):
  EPOCH=  2457194.5 ! 2015-Jun-21.00 (TDB)         Residual RMS= .24436        
   EC= .149954524949592    QR= 2.593222764728422   TP= 2457426.8203404364      
   OM= 145.0538469860253   W=  223.1479165954444   IN= 17.01989391116979       
  Equivalent ICRF heliocentric cartesian coordinates (au, au/d):
   X= 1.851011932967733E+00  Y=-1.936285821365969E+00  Z=-6.379852732538023E-01
  VX= 6.943017444752243E-03 VY= 8.348017746586479E-03 VZ= 1.783606372037431E-04
Asteroid physical parameters (km, seconds, rotational period in hours):        
   GM= n.a.                RAD= 42.996             ROTPER= 14.115              
   H= 9.67                 G= .150                 B-V= .670                   
                           ALBEDO= .039            STYP= XF                    
*******************************************************************************
JDTDB
   X     Y     Z
   VX    VY    VZ
*******************************************************************************
$$SOE
2460168.500000000 = A.D. 2023-Aug-12 00:00:00.0000 TDB 
 X =-4.899162623374008E+08 Y = 1.565739214324051E+08 Z = 4.675042596143810E+07
 VX=-5.016499986392875E+00 VY=-1.347073869950201E+01 VZ= 4.258866682773183E+00
$$EOE
*******************************************************************************
 
TIME

  Barycentric Dynamical Time ("TDB" or T_eph) output was requested. This
continuous coordinate time is equivalent to the relativistic proper time
of a clock at rest in a reference frame co-moving with the solar system
barycenter but outside the system's gravity well. It is the independent
variable in the solar system relativistic equations of motion.

  TDB runs at a uniform rate of one SI second per second and is independent
of irregularities in Earth's rotation.
 
CALENDAR SYSTEM

  Mixed calendar mode was active such that calendar dates after AD 1582-Oct-15
(if any) are in the modern Gregorian system. Dates prior to 1582-Oct-5 (if any)
are in the Julian calendar system, which is automatically extended for dates
prior to its adoption on 45-Jan-1 BC.  The Julian calendar is useful for
matching historical dates. The Gregorian calendar more accurately corresponds
to the Earth's orbital motion and seasons. A "Gregorian-only" calendar mode is
available if such physical events are the primary interest.

REFERENCE FRAME AND COORDINATES

  Ecliptic at the standard reference epoch

    Reference epoch: J2000.0
    X-Y plane: adopted Earth orbital plane at the reference epoch
               Note: IAU76 obliquity of 84381.448 arcseconds wrt ICRF X-Y plane
    X-axis   : ICRF
    Z-axis   : perpendicular to the X-Y plane in the directional (+ or -) sense
               of Earth's north pole at the reference epoch.

  Symbol meaning:

    JDTDB    Julian Day Number, Barycentric Dynamical Time
      X      X-component of position vector (km)
      Y      Y-component of position vector (km)
      Z      Z-component of position vector (km)
      VX     X-component of velocity vector (km/sec)                           
      VY     Y-component of velocity vector (km/sec)                           
      VZ     Z-component of velocity vector (km/sec)                           

ABERRATIONS AND CORRECTIONS

 Geometric state vectors have NO corrections or aberrations applied.

Computations by ...

    Solar System Dynamics Group, Horizons On-Line Ephemeris System
    4800 Oak Grove Drive, Jet Propulsion Laboratory
    Pasadena, CA  91109   USA

    General site: https://ssd.jpl.nasa.gov/
    Mailing list: https://ssd.jpl.nasa.gov/email_list.html
    System news : https://ssd.jpl.nasa.gov/horizons/news.html
    User Guide  : https://ssd.jpl.nasa.gov/horizons/manual.html
    Connect     : browser        https://ssd.jpl.nasa.gov/horizons/app.html#/x
                  API            https://ssd-api.jpl.nasa.gov/doc/horizons.html
                  command-line   telnet ssd.jpl.nasa.gov 6775
                  e-mail/batch   https://ssd.jpl.nasa.gov/ftp/ssd/hrzn_batch.txt
                  scripts        https://ssd.jpl.nasa.gov/ftp/ssd/SCRIPTS
    Author      : Jon.D.Giorgini@jpl.nasa.gov
*******************************************************************************
